ONEWEB-0309             
1 49095U 21075W   26166.11468795 -.00000077  00000+0 -23031-3 0  9991
2 49095  87.9133   6.2754 0001940 102.3528 257.7821 13.17648125233300
ONEWEB-0310             
1 49096U 21075X   26165.94849199  .00000118  00000+0  29325-3 0  9999
2 49096  87.8939 351.1259 0001800  90.8672 269.2663 13.12444778234892
ONEWEB-0311             
1 49097U 21075Y   26166.27331786 -.00000027  00000+0 -10179-3 0  9993
2 49097  87.9135   6.2435 0002279  82.3741 277.7650 13.17649934233378
ONEWEB-0312             
1 49098U 21075Z   26166.06070849  .00000051  00000+0  98966-4 0  9997
2 49098  87.9132   6.2966 0002168  92.0552 268.0828 13.17652398233323
ONEWEB-0313             
1 49099U 21075AA  26166.06561352 -.00000011  00000+0 -61605-4 0  9990
2 49099  87.9129   6.3014 0001991  86.7185 273.4174 13.17647533233318
ONEWEB-0314             
1 49100U 21075AB  26166.10794928 -.00000067  00000+0 -20446-3 0  9993
2 49100  87.9142   6.2651 0002233  91.4795 268.6592 13.17649152233298
ONEWEB-0315             
1 49101U 21075AC  26166.22633383 -.00000407  00000+0 -11659-2 0  9997
2 49101  87.8947 351.0342 0002095  82.0926 278.0440 13.12443159234918
ONEWEB-0316             
1 49102U 21075AD  26166.18602809 -.00000021  00000+0 -86767-4 0  9998
2 49102  87.9161 335.8544 0001923  91.6264 268.5089 13.18686885236941
ONEWEB-0317             
1 49103U 21075AE  26166.22972268 -.00000401  00000+0 -11490-2 0  9994
2 49103  87.8948 351.0572 0001486 113.4910 246.6375 13.12443485234933
ONEWEB-0318             
1 49104U 21075AF  26166.18265852  .00000012  00000+0 -23589-5 0  9996
2 49104  87.9168 335.8564 0002037  86.9055 273.2310 13.18685910236908
ONEWEB-0319             
1 49105U 21075AG  26166.12312781 -.00000049  00000+0 -15854-3 0  9990
2 49105  87.9133   6.2788 0002250  77.2653 282.8730 13.17648944233333
ONEWEB-0323             
1 49106U 21075AH  26166.05861812  .00000073  00000+0  16807-3 0  9991
2 49106  87.8948 351.0727 0002317  82.9928 277.1464 13.12442084234270
ONEWEB-0329             
1 49107U 21075AJ  26166.05562978 -.00000031  00000+0 -11252-3 0  9998
2 49107  87.9134   6.2930 0002026  89.1929 270.9435 13.17648615233306
ONEWEB-0330             
1 49108U 21075AK  26166.07940496 -.00000045  00000+0 -14786-3 0  9996
2 49108  87.9137   6.3084 0002039  93.6413 266.4952 13.17648642233341
ONEWEB-0292             
1 49186U 21083A   26165.95642109  .00000276  00000+0  71975-3 0  9994
2 49186  87.8944 320.6826 0001932  91.8192 268.3159 13.13471294230635
ONEWEB-0303             
1 49187U 21083B   26166.17928446  .00000053  00000+0  10243-3 0  9995
2 49187  87.9164 335.8558 0001996  89.5513 270.5848 13.18687015229714
ONEWEB-0306             
1 49188U 21083C   26166.01741019  .00000020  00000+0  18868-4 0  9994
2 49188  87.9169 335.8757 0001722  98.8477 261.2851 13.18687011229739
ONEWEB-0307             
1 49189U 21083D   26166.17902130  .00000230  00000+0  59394-3 0  9996
2 49189  87.8948 320.6352 0001978  95.2821 264.8534 13.13470268230664
ONEWEB-0320             
1 49190U 21083E   26166.18939229  .00000010  00000+0 -82155-5 0  9998
2 49190  87.9157 335.8601 0001821  93.8161 266.3179 13.18685931229718
ONEWEB-0321             
1 49191U 21083F   26166.23137128  .00000002  00000+0 -26430-4 0  9997
2 49191  87.9191 274.8245 0001802 107.2552 252.8779 13.20772442236571
ONEWEB-0322             
1 49192U 21083G   26166.17476509  .00000115  00000+0  28041-3 0  9993
2 49192  87.8950 320.6365 0001370  99.8787 260.2497 13.13468395230657
ONEWEB-0324             
1 49193U 21083H   26166.16241361 -.00000046  00000+0 -15069-3 0  9990
2 49193  87.9170 335.8523 0001958  97.4873 262.6482 13.18685309229737
ONEWEB-0325             
1 49194U 21083J   26166.16579073 -.00000017  00000+0 -75289-4 0  9994
2 49194  87.9159 335.8602 0001794  90.0681 270.0657 13.18686049229747
ONEWEB-0326             
1 49195U 21083K   26166.18110627  .00000003  00000+0 -26396-4 0  9992
2 49195  87.9168 335.8548 0002037  85.9319 274.2046 13.18685272229733
ONEWEB-0327             
1 49196U 21083L   26166.18082559 -.00000002  00000+0 -36587-4 0  9998
2 49196  87.9159 335.8593 0001986  81.1802 278.9555 13.18685009229757
ONEWEB-0328             
1 49197U 21083M   26166.16462617 -.00000168  00000+0 -49576-3 0  9998
2 49197  87.8960 320.6114 0001945  99.3704 260.7646 13.13470349230638
ONEWEB-0331             
1 49198U 21083N   26166.17421850  .00000039  00000+0  66027-4 0  9990
2 49198  87.9169 335.8499 0002129  86.5622 273.5753 13.18686943229742
ONEWEB-0333             
1 49199U 21083P   26166.15954379 -.00000103  00000+0 -31798-3 0  9996
2 49199  87.8947 320.6390 0001813  94.8794 265.2542 13.13470722230645
ONEWEB-0334             
1 49200U 21083Q   26166.24806933  .00010473  00000+0  25524-1 0  9998
2 49200  87.9165 274.8317 0001550 114.1668 245.9628 13.21223455236536
ONEWEB-0335             
1 49201U 21083R   26166.15446778 -.00000328  00000+0 -93380-3 0  9993
2 49201  87.8951 320.6371 0001989  93.2207 266.9150 13.13470596230652
